{
  "type": "FeatureCollection",
  "name": "buildings",
  "features": [
    {
      "type": "Feature",
      "id": "BLDG-001",
      "properties": {
        "id": "BLDG-001",
        "layer": "BUILDING_FOOTPRINT",
        "land_use_code": "08",
        "building_type": "ai_r_and_d",
        "name_zh": "AI研发与社区服务中心基底",
        "source_type": "agent_generated_design",
        "confidence": "medium",
        "geometry_role": "design_proposal",
        "area_sqm_declared": 1362179.697
      },
      "geometry": {
        "type": "Polygon",
        "coordinates": [
          [
            [
              116.3475513959,
              39.9575017808
            ],
            [
              116.3538669227,
              39.9575017808
            ],
            [
              116.3538669227,
              39.9802376773
            ],
            [
              116.3475513959,
              39.9802376773
            ],
            [
              116.3475513959,
              39.9575017808
            ]
          ]
        ]
      }
    }
  ]
}